STARLINK-35799          
1 66290U 25247AB  25317.66668981 -.02040630  00000+0 -16199-1 0  9994
2 66290  53.1585  15.5624 0001199  77.0250  38.5021 15.73629485  3266
STARLINK-35800          
1 66291U 25247AC  25317.66668981 -.02033917  00000+0 -16136-1 0  9996
2 66291  53.1583  15.5548 0001120  64.9281  54.4164 15.73634769  3269
STARLINK-35798          
1 66292U 25247AD  25317.66668981 -.02056429  00000+0 -16325-1 0  9990
2 66292  53.1585  15.5589 0001107  65.9414  51.4731 15.73654846  2940
LVM3 R/B                
1 66310U 25249A   25318.48256851  .00042608  75239-6  12055-2 0  9993
2 66310  21.3384 153.7813 6678678 190.4926 141.6927  3.12837121   396
CMS-03 (GSAT-7R)        
1 66311U 25249B   25318.75716154 -.00000254  00000+0  00000+0 0  9994
2 66311   0.2111 271.3626 0004458 203.2791 305.5324  1.00270466   206
YAOGAN-46               
1 66313U 25250A   25316.61346953 -.00000009  00000+0  00000+0 0  9995
2 66313  20.0301 111.3998 0049241 123.4899 237.0003  5.35115895   585
CZ-7A R/B               
1 66314U 25250B   25316.23333361  .31292675 -21828-4  14021-2 0  9996
2 66314  19.9176  96.2576 3166388 167.6396 202.4838  9.41652562   864
SENTINEL-1D             
1 66315U 25251A   25318.75477141  .00000450  00000+0  10462-3 0  9995
2 66315  98.1944 324.1383 0000670 326.5118  33.6039 14.59502222  1457
QPS-SAR-14 (YACHIHOKO-I)
1 66316U 25252A   25318.78970323  .00007172  00000+0  62275-3 0  9997
2 66316  42.0043 228.5438 0009246 320.2348  39.7798 14.97300086  1341
ELECTRON R/B            
1 66317U 25252B   25317.79152560  .00744179  17196-3  19122-2 0  9998
2 66317  41.9990 229.6362 0218733 291.6056  66.1619 15.64795839  1243
ELECTRON KICK STAGE R/B 
1 66318U 25252C   25317.78137979  .00974315  31272-3  22331-2 0  9999
2 66318  41.9876 229.5725 0207621  80.2587 282.1644 15.68725533  1240
STARLINK-35442          
1 66319U 25253A   25317.75003472 -.01489007  64567-3 -36784-2 0  9990
2 66319  42.9977 157.1644 0001831 264.7320 322.3408 15.95128869  2367
