CCSDS_OMM_VERS = 2.0
CREATION_DATE  = 
ORIGINATOR     = 

OBJECT_NAME    = STARLINK-35799
OBJECT_ID      = 2025-247AB
CENTER_NAME    = EARTH
REF_FRAME      = TEME
TIME_SYSTEM    = UTC
MEAN_ELEMENT_THEORY = SGP/SGP4

EPOCH          = 2025-11-13T16:00:01.999584
MEAN_MOTION    = 15.73629485
ECCENTRICITY   = .00011995
INCLINATION    = 53.1585
RA_OF_ASC_NODE = 15.5624
ARG_OF_PERICENTER = 77.0250
MEAN_ANOMALY   = 38.5021

EPHEMERIS_TYPE = 0
CLASSIFICATION_TYPE = U
NORAD_CAT_ID   = 66290
ELEMENT_SET_NO = 999
REV_AT_EPOCH   = 326
BSTAR          = -.16199375E-1
MEAN_MOTION_DOT = -.204063E-1
MEAN_MOTION_DDOT = 0

CCSDS_OMM_VERS = 2.0
CREATION_DATE  = 
ORIGINATOR     = 

OBJECT_NAME    = STARLINK-35800
OBJECT_ID      = 2025-247AC
CENTER_NAME    = EARTH
REF_FRAME      = TEME
TIME_SYSTEM    = UTC
MEAN_ELEMENT_THEORY = SGP/SGP4

EPOCH          = 2025-11-13T16:00:01.999584
MEAN_MOTION    = 15.73634769
ECCENTRICITY   = .00011207
INCLINATION    = 53.1583
RA_OF_ASC_NODE = 15.5548
ARG_OF_PERICENTER = 64.9281
MEAN_ANOMALY   = 54.4164

EPHEMERIS_TYPE = 0
CLASSIFICATION_TYPE = U
NORAD_CAT_ID   = 66291
ELEMENT_SET_NO = 999
REV_AT_EPOCH   = 326
BSTAR          = -.16135691E-1
MEAN_MOTION_DOT = -.2033917E-1
MEAN_MOTION_DDOT = 0

CCSDS_OMM_VERS = 2.0
CREATION_DATE  = 
ORIGINATOR     = 

OBJECT_NAME    = STARLINK-35798
OBJECT_ID      = 2025-247AD
CENTER_NAME    = EARTH
REF_FRAME      = TEME
TIME_SYSTEM    = UTC
MEAN_ELEMENT_THEORY = SGP/SGP4

EPOCH          = 2025-11-13T16:00:01.999584
MEAN_MOTION    = 15.73654846
ECCENTRICITY   = .00011071
INCLINATION    = 53.1585
RA_OF_ASC_NODE = 15.5589
ARG_OF_PERICENTER = 65.9414
MEAN_ANOMALY   = 51.4731

EPHEMERIS_TYPE = 0
CLASSIFICATION_TYPE = U
NORAD_CAT_ID   = 66292
ELEMENT_SET_NO = 999
REV_AT_EPOCH   = 294
BSTAR          = -.16324871E-1
MEAN_MOTION_DOT = -.2056429E-1
MEAN_MOTION_DDOT = 0

CCSDS_OMM_VERS = 2.0
CREATION_DATE  = 
ORIGINATOR     = 

OBJECT_NAME    = LVM3 R/B
OBJECT_ID      = 2025-249A
CENTER_NAME    = EARTH
REF_FRAME      = TEME
TIME_SYSTEM    = UTC
MEAN_ELEMENT_THEORY = SGP/SGP4

EPOCH          = 2025-11-14T11:34:53.919264
MEAN_MOTION    = 3.12837121
ECCENTRICITY   = .6678678
INCLINATION    = 21.3384
RA_OF_ASC_NODE = 153.7813
ARG_OF_PERICENTER = 190.4926
MEAN_ANOMALY   = 141.6927

EPHEMERIS_TYPE = 0
CLASSIFICATION_TYPE = U
NORAD_CAT_ID   = 66310
ELEMENT_SET_NO = 999
REV_AT_EPOCH   = 39
BSTAR          = .12055E-2
MEAN_MOTION_DOT = .42608E-3
MEAN_MOTION_DDOT = .75239E-6

CCSDS_OMM_VERS = 2.0
CREATION_DATE  = 
ORIGINATOR     = 

OBJECT_NAME    = CMS-03 (GSAT-7R)
OBJECT_ID      = 2025-249B
CENTER_NAME    = EARTH
REF_FRAME      = TEME
TIME_SYSTEM    = UTC
MEAN_ELEMENT_THEORY = SGP/SGP4

EPOCH          = 2025-11-14T18:10:18.757056
MEAN_MOTION    = 1.00270466
ECCENTRICITY   = .0004458
INCLINATION    = 0.2111
RA_OF_ASC_NODE = 271.3626
ARG_OF_PERICENTER = 203.2791
MEAN_ANOMALY   = 305.5324

EPHEMERIS_TYPE = 0
CLASSIFICATION_TYPE = U
NORAD_CAT_ID   = 66311
ELEMENT_SET_NO = 999
REV_AT_EPOCH   = 20
BSTAR          = 0
MEAN_MOTION_DOT = -.254E-5
MEAN_MOTION_DDOT = 0

CCSDS_OMM_VERS = 2.0
CREATION_DATE  = 
ORIGINATOR     = 

OBJECT_NAME    = YAOGAN-46
OBJECT_ID      = 2025-250A
CENTER_NAME    = EARTH
REF_FRAME      = TEME
TIME_SYSTEM    = UTC
MEAN_ELEMENT_THEORY = SGP/SGP4

EPOCH          = 2025-11-12T14:43:23.767392
MEAN_MOTION    = 5.35115895
ECCENTRICITY   = .00492414
INCLINATION    = 20.0301
RA_OF_ASC_NODE = 111.3998
ARG_OF_PERICENTER = 123.4899
MEAN_ANOMALY   = 237.0003

EPHEMERIS_TYPE = 0
CLASSIFICATION_TYPE = U
NORAD_CAT_ID   = 66313
ELEMENT_SET_NO = 999
REV_AT_EPOCH   = 58
BSTAR          = 0
MEAN_MOTION_DOT = -.9E-7
MEAN_MOTION_DDOT = 0

CCSDS_OMM_VERS = 2.0
CREATION_DATE  = 
ORIGINATOR     = 

OBJECT_NAME    = CZ-7A R/B
OBJECT_ID      = 2025-250B
CENTER_NAME    = EARTH
REF_FRAME      = TEME
TIME_SYSTEM    = UTC
MEAN_ELEMENT_THEORY = SGP/SGP4

EPOCH          = 2025-11-12T05:36:00.023904
MEAN_MOTION    = 9.41652562
ECCENTRICITY   = .31663885
INCLINATION    = 19.9176
RA_OF_ASC_NODE = 96.2576
ARG_OF_PERICENTER = 167.6396
MEAN_ANOMALY   = 202.4838

EPHEMERIS_TYPE = 0
CLASSIFICATION_TYPE = U
NORAD_CAT_ID   = 66314
ELEMENT_SET_NO = 999
REV_AT_EPOCH   = 86
BSTAR          = .14021155E-2
MEAN_MOTION_DOT = .31292675E+0
MEAN_MOTION_DDOT = -.21828418E-4

CCSDS_OMM_VERS = 2.0
CREATION_DATE  = 
ORIGINATOR     = 

OBJECT_NAME    = SENTINEL-1D
OBJECT_ID      = 2025-251A
CENTER_NAME    = EARTH
REF_FRAME      = TEME
TIME_SYSTEM    = UTC
MEAN_ELEMENT_THEORY = SGP/SGP4

EPOCH          = 2025-11-14T18:06:52.249824
MEAN_MOTION    = 14.59502222
ECCENTRICITY   = .000067
INCLINATION    = 98.1944
RA_OF_ASC_NODE = 324.1383
ARG_OF_PERICENTER = 326.5118
MEAN_ANOMALY   = 33.6039

EPHEMERIS_TYPE = 0
CLASSIFICATION_TYPE = U
NORAD_CAT_ID   = 66315
ELEMENT_SET_NO = 999
REV_AT_EPOCH   = 145
BSTAR          = .10462E-3
MEAN_MOTION_DOT = .45E-5
MEAN_MOTION_DDOT = 0

CCSDS_OMM_VERS = 2.0
CREATION_DATE  = 
ORIGINATOR     = 

OBJECT_NAME    = QPS-SAR-14 (YACHIHOKO-I)
OBJECT_ID      = 2025-252A
CENTER_NAME    = EARTH
REF_FRAME      = TEME
TIME_SYSTEM    = UTC
MEAN_ELEMENT_THEORY = SGP/SGP4

EPOCH          = 2025-11-14T18:57:10.359072
MEAN_MOTION    = 14.97300086
ECCENTRICITY   = .0009246
INCLINATION    = 42.0043
RA_OF_ASC_NODE = 228.5438
ARG_OF_PERICENTER = 320.2348
MEAN_ANOMALY   = 39.7798

EPHEMERIS_TYPE = 0
CLASSIFICATION_TYPE = U
NORAD_CAT_ID   = 66316
ELEMENT_SET_NO = 999
REV_AT_EPOCH   = 134
BSTAR          = .62275E-3
MEAN_MOTION_DOT = .7172E-4
MEAN_MOTION_DDOT = 0

CCSDS_OMM_VERS = 2.0
CREATION_DATE  = 
ORIGINATOR     = 

OBJECT_NAME    = ELECTRON R/B
OBJECT_ID      = 2025-252B
CENTER_NAME    = EARTH
REF_FRAME      = TEME
TIME_SYSTEM    = UTC
MEAN_ELEMENT_THEORY = SGP/SGP4

EPOCH          = 2025-11-13T18:59:47.811840
MEAN_MOTION    = 15.64795839
ECCENTRICITY   = .02187333
INCLINATION    = 41.9990
RA_OF_ASC_NODE = 229.6362
ARG_OF_PERICENTER = 291.6056
MEAN_ANOMALY   = 66.1619

EPHEMERIS_TYPE = 0
CLASSIFICATION_TYPE = U
NORAD_CAT_ID   = 66317
ELEMENT_SET_NO = 999
REV_AT_EPOCH   = 124
BSTAR          = .19122323E-2
MEAN_MOTION_DOT = .744179E-2
MEAN_MOTION_DDOT = .17196224E-3

CCSDS_OMM_VERS = 2.0
CREATION_DATE  = 
ORIGINATOR     = 

OBJECT_NAME    = ELECTRON KICK STAGE R/B
OBJECT_ID      = 2025-252C
CENTER_NAME    = EARTH
REF_FRAME      = TEME
TIME_SYSTEM    = UTC
MEAN_ELEMENT_THEORY = SGP/SGP4

EPOCH          = 2025-11-13T18:45:11.213856
MEAN_MOTION    = 15.68725533
ECCENTRICITY   = .02076216
INCLINATION    = 41.9876
RA_OF_ASC_NODE = 229.5725
ARG_OF_PERICENTER = 80.2587
MEAN_ANOMALY   = 282.1644

EPHEMERIS_TYPE = 0
CLASSIFICATION_TYPE = U
NORAD_CAT_ID   = 66318
ELEMENT_SET_NO = 999
REV_AT_EPOCH   = 124
BSTAR          = .22331256E-2
MEAN_MOTION_DOT = .974315E-2
MEAN_MOTION_DDOT = .31271961E-3

CCSDS_OMM_VERS = 2.0
CREATION_DATE  = 
ORIGINATOR     = 

OBJECT_NAME    = STARLINK-35442
OBJECT_ID      = 2025-253A
CENTER_NAME    = EARTH
REF_FRAME      = TEME
TIME_SYSTEM    = UTC
MEAN_ELEMENT_THEORY = SGP/SGP4

EPOCH          = 2025-11-13T18:00:02.999808
MEAN_MOTION    = 15.95128869
ECCENTRICITY   = .0001831
INCLINATION    = 42.9977
RA_OF_ASC_NODE = 157.1644
ARG_OF_PERICENTER = 264.7320
MEAN_ANOMALY   = 322.3408

EPHEMERIS_TYPE = 0
CLASSIFICATION_TYPE = U
NORAD_CAT_ID   = 66319
ELEMENT_SET_NO = 999
REV_AT_EPOCH   = 236
BSTAR          = -.36783628E-2
MEAN_MOTION_DOT = -.1489007E-1
MEAN_MOTION_DDOT = .64567046E-3

